SL-16 R/B               
1 22803U 93059B   26108.91985495 -.00000183  00000+0 -66653-4 0  9991
2 22803  70.9891 286.2885 0016146 155.9308 204.2574 14.17238963685231
ARIANE 40 R/B           
1 22830U 93061H   26109.13016570  .00000132  00000+0  63983-4 0  9993
2 22830  98.4852 177.2054 0011270 158.8656 201.2996 14.32881614699897
COSMOS 2278             
1 23087U 94023A   26109.19309101  .00000329  00000+0  19626-3 0  9990
2 23087  71.0518  90.3548 0010045 316.3582  43.6746 14.14382945650531
SL-16 R/B               
1 23088U 94023B   26109.07987127 -.00000253  00000+0 -10612-3 0  9992
2 23088  71.0014 346.0660 0005458 250.0872 109.9662 14.15017184651802
SL-16 R/B               
1 23343U 94074B   26109.10471187  .00000288  00000+0  45201-4 0  9999
2 23343  97.7049 138.2744 0008110  90.3895 335.5119 14.79451138693228
SL-16 R/B               
1 23405U 94077B   26109.18708643  .00000256  00000+0  15545-3 0  9991
2 23405  70.9816 267.2871 0000841 148.2804 211.8370 14.15569151621964
ARIANE 40+ R/B          
1 23561U 95021B   26109.18624931  .00000181  00000+0  71412-4 0  9994
2 23561  98.4438 180.1068 0007140  30.9296 353.4211 14.39799997625076
SL-16 R/B               
1 23705U 95058B   26109.19604172  .00000099  00000+0  74718-4 0  9990
2 23705  71.0199  95.2117 0010733  51.0809 309.1269 14.15504786573587
SL-16 R/B               
1 24298U 96051B   26109.17981955  .00000023  00000+0  39300-4 0  9992
2 24298  70.7588  89.5355 0012548  78.7271 281.5258 14.12425996527366
ORBVIEW 2 (SEASTAR)     
1 24883U 97037A   26109.26287765  .00000156  00000+0  70452-4 0  9995
2 24883  98.8633 274.6644 0001294 322.4542  37.6552 14.35521798514299
SL-16 R/B               
1 25400U 98043G   26109.28588083  .00000021  00000+0  27970-4 0  9996
2 25400  98.8319  62.9545 0008749 255.5189 104.5020 14.26058627444774
SL-16 R/B               
1 25407U 98045B   26109.25769393 -.00000151  00000+0 -51854-4 0  9991
2 25407  71.0094  96.2593 0009118 311.2649  48.7688 14.16198956432842
ISS (ZARYA)             
1 25544U 98067A   26109.16735171  .00008294  00000+0  15944-3 0  9997
2 25544  51.6330 232.2024 0006622 324.6287  35.4262 15.48825421562604
CZ-4B R/B               
1 25732U 99025C   26109.08318255  .00000037  00000+0  38700-4 0  9995
2 25732  98.6548 152.3924 0036299 227.4763 161.0533 14.18273072393893
OKEAN-O                 
1 25860U 99039A   26109.13952040  .00000402  00000+0  59516-4 0  9998
2 25860  97.9366 168.6031 0001328 115.6093 244.5256 14.80395455440377
SL-16 R/B               
1 25861U 99039B   26109.08144997  .00000355  00000+0  51748-4 0  9993
2 25861  97.9888 168.1005 0015966 123.8143 236.4593 14.81783724442842
DELTA 2 R/B             
1 25876U 99041E   26109.07441969  .00000175  00000+0  68544-4 0  9992
2 25876  51.7597 139.9463 0502524 107.5177 258.1302 14.11920300368734
