[{"OBJECT_NAME":"SL-16 R/B","OBJECT_ID":"1993-059B","EPOCH":"2026-04-18T22:04:35.467680","MEAN_MOTION":14.17238963,"ECCENTRICITY":0.0016146,"INCLINATION":70.9891,"RA_OF_ASC_NODE":286.2885,"ARG_OF_PERICENTER":155.9308,"MEAN_ANOMALY":204.2574,"EPHEMERIS_TYPE":0,"CLASSIFICATION_TYPE":"U","NORAD_CAT_ID":22803,"ELEMENT_SET_NO":999,"REV_AT_EPOCH":68523,"BSTAR":-6.6653e-5,"MEAN_MOTION_DOT":-1.83e-6,"MEAN_MOTION_DDOT":0},{"OBJECT_NAME":"ARIANE 40 R/B","OBJECT_ID":"1993-061H","EPOCH":"2026-04-19T03:07:26.316480","MEAN_MOTION":14.32881614,"ECCENTRICITY":0.00112702,"INCLINATION":98.4852,"RA_OF_ASC_NODE":177.2054,"ARG_OF_PERICENTER":158.8656,"MEAN_ANOMALY":201.2996,"EPHEMERIS_TYPE":0,"CLASSIFICATION_TYPE":"U","NORAD_CAT_ID":22830,"ELEMENT_SET_NO":999,"REV_AT_EPOCH":69989,"BSTAR":6.3982815e-5,"MEAN_MOTION_DOT":1.32e-6,"MEAN_MOTION_DDOT":0},{"OBJECT_NAME":"COSMOS 2278","OBJECT_ID":"1994-023A","EPOCH":"2026-04-19T04:38:03.063264","MEAN_MOTION":14.14382945,"ECCENTRICITY":0.00100451,"INCLINATION":71.0518,"RA_OF_ASC_NODE":90.3548,"ARG_OF_PERICENTER":316.3582,"MEAN_ANOMALY":43.6746,"EPHEMERIS_TYPE":0,"CLASSIFICATION_TYPE":"U","NORAD_CAT_ID":23087,"ELEMENT_SET_NO":999,"REV_AT_EPOCH":65053,"BSTAR":0.00019626037,"MEAN_MOTION_DOT":3.29e-6,"MEAN_MOTION_DDOT":0},{"OBJECT_NAME":"SL-16 R/B","OBJECT_ID":"1994-023B","EPOCH":"2026-04-19T01:55:00.877728","MEAN_MOTION":14.15017184,"ECCENTRICITY":0.00054587,"INCLINATION":71.0014,"RA_OF_ASC_NODE":346.066,"ARG_OF_PERICENTER":250.0872,"MEAN_ANOMALY":109.9662,"EPHEMERIS_TYPE":0,"CLASSIFICATION_TYPE":"U","NORAD_CAT_ID":23088,"ELEMENT_SET_NO":999,"REV_AT_EPOCH":65180,"BSTAR":-0.00010612092,"MEAN_MOTION_DOT":-2.53e-6,"MEAN_MOTION_DDOT":0},{"OBJECT_NAME":"SL-16 R/B","OBJECT_ID":"1994-074B","EPOCH":"2026-04-19T02:30:47.105568","MEAN_MOTION":14.79451138,"ECCENTRICITY":0.00081101,"INCLINATION":97.7049,"RA_OF_ASC_NODE":138.2744,"ARG_OF_PERICENTER":90.3895,"MEAN_ANOMALY":335.5119,"EPHEMERIS_TYPE":0,"CLASSIFICATION_TYPE":"U","NORAD_CAT_ID":23343,"ELEMENT_SET_NO":999,"REV_AT_EPOCH":69322,"BSTAR":4.5201378e-5,"MEAN_MOTION_DOT":2.88e-6,"MEAN_MOTION_DDOT":0},{"OBJECT_NAME":"SL-16 R/B","OBJECT_ID":"1994-077B","EPOCH":"2026-04-19T04:29:24.267552","MEAN_MOTION":14.15569151,"ECCENTRICITY":8.41e-5,"INCLINATION":70.9816,"RA_OF_ASC_NODE":267.2871,"ARG_OF_PERICENTER":148.2804,"MEAN_ANOMALY":211.837,"EPHEMERIS_TYPE":0,"CLASSIFICATION_TYPE":"U","NORAD_CAT_ID":23405,"ELEMENT_SET_NO":999,"REV_AT_EPOCH":62196,"BSTAR":0.00015545187,"MEAN_MOTION_DOT":2.56e-6,"MEAN_MOTION_DDOT":0},{"OBJECT_NAME":"ARIANE 40+ R/B","OBJECT_ID":"1995-021B","EPOCH":"2026-04-19T04:28:11.940384","MEAN_MOTION":14.39799997,"ECCENTRICITY":0.00071403,"INCLINATION":98.4438,"RA_OF_ASC_NODE":180.1068,"ARG_OF_PERICENTER":30.9296,"MEAN_ANOMALY":353.4211,"EPHEMERIS_TYPE":0,"CLASSIFICATION_TYPE":"U","NORAD_CAT_ID":23561,"ELEMENT_SET_NO":999,"REV_AT_EPOCH":62507,"BSTAR":7.1411892e-5,"MEAN_MOTION_DOT":1.81e-6,"MEAN_MOTION_DDOT":0},{"OBJECT_NAME":"SL-16 R/B","OBJECT_ID":"1995-058B","EPOCH":"2026-04-19T04:42:18.004608","MEAN_MOTION":14.15504786,"ECCENTRICITY":0.00107339,"INCLINATION":71.0199,"RA_OF_ASC_NODE":95.2117,"ARG_OF_PERICENTER":51.0809,"MEAN_ANOMALY":309.1269,"EPHEMERIS_TYPE":0,"CLASSIFICATION_TYPE":"U","NORAD_CAT_ID":23705,"ELEMENT_SET_NO":999,"REV_AT_EPOCH":57358,"BSTAR":7.4718456e-5,"MEAN_MOTION_DOT":9.9e-7,"MEAN_MOTION_DDOT":0},{"OBJECT_NAME":"SL-16 R/B","OBJECT_ID":"1996-051B","EPOCH":"2026-04-19T04:18:56.409120","MEAN_MOTION":14.12425996,"ECCENTRICITY":0.00125481,"INCLINATION":70.7588,"RA_OF_ASC_NODE":89.5355,"ARG_OF_PERICENTER":78.7271,"MEAN_ANOMALY":281.5258,"EPHEMERIS_TYPE":0,"CLASSIFICATION_TYPE":"U","NORAD_CAT_ID":24298,"ELEMENT_SET_NO":999,"REV_AT_EPOCH":52736,"BSTAR":3.9300166e-5,"MEAN_MOTION_DOT":2.3e-7,"MEAN_MOTION_DDOT":0},{"OBJECT_NAME":"ORBVIEW 2 (SEASTAR)","OBJECT_ID":"1997-037A","EPOCH":"2026-04-19T06:18:32.628960","MEAN_MOTION":14.35521798,"ECCENTRICITY":0.00012941,"INCLINATION":98.8633,"RA_OF_ASC_NODE":274.6644,"ARG_OF_PERICENTER":322.4542,"MEAN_ANOMALY":37.6552,"EPHEMERIS_TYPE":0,"CLASSIFICATION_TYPE":"U","NORAD_CAT_ID":24883,"ELEMENT_SET_NO":999,"REV_AT_EPOCH":51429,"BSTAR":7.0452466e-5,"MEAN_MOTION_DOT":1.56e-6,"MEAN_MOTION_DDOT":0},{"OBJECT_NAME":"SL-16 R/B","OBJECT_ID":"1998-043G","EPOCH":"2026-04-19T06:51:40.103712","MEAN_MOTION":14.26058627,"ECCENTRICITY":0.00087498,"INCLINATION":98.8319,"RA_OF_ASC_NODE":62.9545,"ARG_OF_PERICENTER":255.5189,"MEAN_ANOMALY":104.502,"EPHEMERIS_TYPE":0,"CLASSIFICATION_TYPE":"U","NORAD_CAT_ID":25400,"ELEMENT_SET_NO":999,"REV_AT_EPOCH":44477,"BSTAR":2.7970187e-5,"MEAN_MOTION_DOT":2.1e-7,"MEAN_MOTION_DDOT":0},{"OBJECT_NAME":"SL-16 R/B","OBJECT_ID":"1998-045B","EPOCH":"2026-04-19T06:11:04.755552","MEAN_MOTION":14.16198956,"ECCENTRICITY":0.00091181,"INCLINATION":71.0094,"RA_OF_ASC_NODE":96.2593,"ARG_OF_PERICENTER":311.2649,"MEAN_ANOMALY":48.7688,"EPHEMERIS_TYPE":0,"CLASSIFICATION_TYPE":"U","NORAD_CAT_ID":25407,"ELEMENT_SET_NO":999,"REV_AT_EPOCH":43284,"BSTAR":-5.1853936e-5,"MEAN_MOTION_DOT":-1.51e-6,"MEAN_MOTION_DDOT":0},{"OBJECT_NAME":"ISS (ZARYA)","OBJECT_ID":"1998-067A","EPOCH":"2026-04-19T04:00:59.187744","MEAN_MOTION":15.48825421,"ECCENTRICITY":0.00066223,"INCLINATION":51.633,"RA_OF_ASC_NODE":232.2024,"ARG_OF_PERICENTER":324.6287,"MEAN_ANOMALY":35.4262,"EPHEMERIS_TYPE":0,"CLASSIFICATION_TYPE":"U","NORAD_CAT_ID":25544,"ELEMENT_SET_NO":999,"REV_AT_EPOCH":56260,"BSTAR":0.00015944184,"MEAN_MOTION_DOT":8.294e-5,"MEAN_MOTION_DDOT":0},{"OBJECT_NAME":"CZ-4B R/B","OBJECT_ID":"1999-025C","EPOCH":"2026-04-19T01:59:46.972320","MEAN_MOTION":14.18273072,"ECCENTRICITY":0.00362996,"INCLINATION":98.6548,"RA_OF_ASC_NODE":152.3924,"ARG_OF_PERICENTER":227.4763,"MEAN_ANOMALY":161.0533,"EPHEMERIS_TYPE":0,"CLASSIFICATION_TYPE":"U","NORAD_CAT_ID":25732,"ELEMENT_SET_NO":999,"REV_AT_EPOCH":39389,"BSTAR":3.8700246e-5,"MEAN_MOTION_DOT":3.7e-7,"MEAN_MOTION_DDOT":0},{"OBJECT_NAME":"OKEAN-O","OBJECT_ID":"1999-039A","EPOCH":"2026-04-19T03:20:54.562560","MEAN_MOTION":14.80395455,"ECCENTRICITY":0.00013284,"INCLINATION":97.9366,"RA_OF_ASC_NODE":168.6031,"ARG_OF_PERICENTER":115.6093,"MEAN_ANOMALY":244.5256,"EPHEMERIS_TYPE":0,"CLASSIFICATION_TYPE":"U","NORAD_CAT_ID":25860,"ELEMENT_SET_NO":999,"REV_AT_EPOCH":44037,"BSTAR":5.9515602e-5,"MEAN_MOTION_DOT":4.02e-6,"MEAN_MOTION_DDOT":0},{"OBJECT_NAME":"SL-16 R/B","OBJECT_ID":"1999-039B","EPOCH":"2026-04-19T01:57:17.277408","MEAN_MOTION":14.81783724,"ECCENTRICITY":0.00159663,"INCLINATION":97.9888,"RA_OF_ASC_NODE":168.1005,"ARG_OF_PERICENTER":123.8143,"MEAN_ANOMALY":236.4593,"EPHEMERIS_TYPE":0,"CLASSIFICATION_TYPE":"U","NORAD_CAT_ID":25861,"ELEMENT_SET_NO":999,"REV_AT_EPOCH":44284,"BSTAR":5.1747762e-5,"MEAN_MOTION_DOT":3.55e-6,"MEAN_MOTION_DDOT":0},{"OBJECT_NAME":"DELTA 2 R/B","OBJECT_ID":"1999-041E","EPOCH":"2026-04-19T01:47:09.861216","MEAN_MOTION":14.119203,"ECCENTRICITY":0.05025246,"INCLINATION":51.7597,"RA_OF_ASC_NODE":139.9463,"ARG_OF_PERICENTER":107.5177,"MEAN_ANOMALY":258.1302,"EPHEMERIS_TYPE":0,"CLASSIFICATION_TYPE":"U","NORAD_CAT_ID":25876,"ELEMENT_SET_NO":999,"REV_AT_EPOCH":36873,"BSTAR":6.8543626e-5,"MEAN_MOTION_DOT":1.75e-6,"MEAN_MOTION_DDOT":0}]
